OBJECT_NAME,OBJECT_ID,EPOCH,MEAN_MOTION,ECCENTRICITY,INCLINATION,RA_OF_ASC_NODE,ARG_OF_PERICENTER,MEAN_ANOMALY,EPHEMERIS_TYPE,CLASSIFICATION_TYPE,NORAD_CAT_ID,ELEMENT_SET_NO,REV_AT_EPOCH,BSTAR,MEAN_MOTION_DOT,MEAN_MOTION_DDOT
EAGLEEYE,2024-149AS,2026-05-21T18:11:13.189920,15.66155361,.000127,97.3727,233.7353,352.0306,8.0934,0,U,60508,999,9879,.51356E-3,.52843E-3,0
FLOCK 4BE-29,2024-149AT,2026-05-21T17:34:27.537888,15.43174843,.000334,97.3805,227.2265,61.0306,299.1276,0,U,60509,999,9833,.2707E-3,.11918E-3,0
TRANSPORTER-11 OBJECT AU,2024-149AU,2026-05-21T11:29:49.969248,15.39390732,.0004148,97.3727,225.0032,47.6584,312.5012,0,U,60510,999,9820,.27167E-3,.10546E-3,0
FLOCK 4BE-2,2024-149AV,2026-05-21T17:45:36.516672,15.49708246,.0002708,97.3818,228.3430,52.3277,307.8220,0,U,60511,999,9840,.67675E-3,.37572E-3,0
FLOCK 4BE-13,2024-149AW,2026-05-21T11:25:41.619360,15.41086791,.0003969,97.3717,225.6264,27.6772,332.4685,0,U,60512,999,9825,.24506E-3,.10052E-3,0
FLOCK 4BE-27,2024-149AX,2026-05-21T17:08:05.610048,15.33927305,.0004786,97.3821,223.5627,56.2005,303.9693,0,U,60513,999,9808,.19507E-3,.6324E-4,0
FLOCK 4BE-9,2024-149AY,2026-05-21T04:41:52.374048,15.39899364,.00035058,97.3787,225.2239,63.4714,296.6891,0,U,60514,999,9816,.26707864E-3,.1054E-3,0
FLOCK 4BE-6,2024-149BA,2026-05-21T17:22:41.636064,15.38773077,.0004103,97.3784,225.1636,56.3000,303.8636,0,U,60516,999,9820,.24806E-3,.9428E-4,0
FLOCK 4BE-14,2024-149BB,2026-05-21T11:18:37.134432,15.40074048,.0004865,97.3693,225.0238,51.6732,308.4951,0,U,60517,999,9821,.27241E-3,.10817E-3,0
FLOCK 4BE-1,2024-149BC,2026-05-21T17:01:14.085120,15.41609565,.0004408,97.3777,226.4477,51.1354,309.0286,0,U,60518,999,9829,.28303E-3,.1183E-3,0
FLOCK 4BE-28,2024-149BD,2026-05-21T18:18:08.455968,15.43885585,.0004441,97.3741,227.1449,45.0120,315.1487,0,U,60519,999,9836,.29035E-3,.13104E-3,0
IPERDRONE.0,2024-149BE,2026-05-21T18:23:23.688096,15.62756471,.0001028,97.3779,233.7549,339.7637,20.3580,0,U,60520,999,9878,.49123E-3,.44156E-3,0
TRANSPORTER-11 OBJECT BF,2024-149BF,2026-05-21T06:15:35.388864,15.74317054,.0001646,97.3777,235.3474,268.1396,91.9680,0,U,60521,999,9883,.74419E-3,.108145E-2,0
CONNECTA IOT-2,2024-149BG,2026-05-21T17:12:26.428320,15.23716350,.0007898,97.3839,220.2686,66.1343,294.0721,0,U,60522,999,9786,.12618E-3,.2962E-4,0
PTD-R (TYVAK-0127),2024-149BH,2026-05-21T18:26:14.918208,15.90531006,.0002469,97.3791,240.1331,246.1182,113.9832,0,U,60523,999,9921,.52295E-3,.159076E-2,.11328E-4
CONNECTA IOT-4,2024-149BJ,2026-05-21T17:23:06.406080,15.41060557,.0005462,97.3793,225.8032,40.5697,319.5956,0,U,60524,999,9825,.32593E-3,.13394E-3,0
ORESAT0.5,2024-149BK,2026-05-21T18:00:14.954976,15.43983485,.0005358,97.3718,227.3679,30.0340,330.1215,0,U,60525,999,9839,.2923E-3,.13238E-3,0
DEIMOS,2024-149BL,2026-05-21T18:26:13.915104,15.43179100,.0005605,97.3776,227.5391,36.5629,323.6001,0,U,60526,999,9837,.29201E-3,.12871E-3,0
CUAVA-2,2024-149BM,2026-05-21T18:14:54.957120,15.35435059,.0007225,97.3722,223.2483,40.3414,319.8364,0,U,60527,999,9811,.24592E-3,.8392E-4,0
ERNST,2024-149BN,2026-05-21T16:53:42.201024,15.38429071,.000657,97.3805,225.2409,44.5274,315.6498,0,U,60528,999,9820,.26426E-3,.9942E-4,0
TORO,2024-149BQ,2026-05-21T18:13:22.543680,14.96313022,.0001981,97.6793,216.9217,92.7529,267.3920,0,U,60530,999,9600,.15208E-3,.1662E-4,0
HYPSO-2,2024-149BR,2026-05-21T18:17:02.124096,14.98645906,.0002948,97.6833,218.4076,93.3767,266.7793,0,U,60531,999,9609,.19797E-3,.2318E-4,0
LEMU NGE,2024-149BS,2026-05-21T17:53:29.013216,14.94824424,.0002683,97.6846,217.2410,102.9199,257.2321,0,U,60532,999,9600,.14241E-3,.1494E-4,0
LEMUR-2-STELLA,2024-149BT,2026-05-21T17:36:18.445248,15.11147638,.0002135,97.6729,224.0869,115.6544,244.4906,0,U,60533,999,9650,.42429E-3,.7051E-4,0
SATELIOT_2,2024-149BU,2026-05-21T17:53:16.372032,14.96245515,.0001711,97.6830,217.1849,115.2229,244.9170,0,U,60534,999,9601,.1258E-3,.1363E-4,0
NIGHTJAR,2024-149BV,2026-05-21T18:10:10.892064,14.98840808,.000245,97.6839,218.8314,123.3447,236.8010,0,U,60535,999,13891,.20761E-3,.2447E-4,0
LEMUR-2-MARHISYAM,2024-149BW,2026-05-21T16:54:29.553408,15.10629798,.0002259,97.6874,224.4787,170.3446,189.7827,0,U,60536,999,9648,.47175E-3,.7736E-4,0
SATELIOT_4,2024-149BX,2026-05-21T18:16:43.337280,14.96561651,.0003711,97.6745,216.7465,110.3522,249.8099,0,U,60537,999,9602,.1486E-3,.1634E-4,0
PICO-02A021,2024-149BY,2026-05-21T17:42:42.432768,15.02966870,.0007389,97.6754,220.8061,104.0561,256.1486,0,U,60538,999,9576,.22968E-3,.3028E-4,0
ICEYE-X43,2024-149BZ,2026-05-21T17:46:41.601792,14.99780291,.0005592,97.6760,219.0713,167.7664,192.3696,0,U,60539,999,9615,.17064E-3,.2051E-4,0
