EAGLEEYE                
1 60508U 24149AS  26141.75779155  .00052843  00000+0  51356-3 0  9993
2 60508  97.3727 233.7353 0001270 352.0306   8.0934 15.66155361 98797
FLOCK 4BE-29            
1 60509U 24149AT  26141.73226317  .00011918  00000+0  27070-3 0  9993
2 60509  97.3805 227.2265 0003340  61.0306 299.1276 15.43174843 98335
TRANSPORTER-11 OBJECT AU
1 60510U 24149AU  26141.47905057  .00010546  00000+0  27167-3 0  9994
2 60510  97.3727 225.0032 0004148  47.6584 312.5012 15.39390732 98209
FLOCK 4BE-2             
1 60511U 24149AV  26141.74000598  .00037572  00000+0  67675-3 0  9997
2 60511  97.3818 228.3430 0002708  52.3277 307.8220 15.49708246 98405
FLOCK 4BE-13            
1 60512U 24149AW  26141.47617615  .00010052  00000+0  24506-3 0  9992
2 60512  97.3717 225.6264 0003969  27.6772 332.4685 15.41086791 98252
FLOCK 4BE-27            
1 60513U 24149AX  26141.71395382  .00006324  00000+0  19507-3 0  9996
2 60513  97.3821 223.5627 0004786  56.2005 303.9693 15.33927305 98083
FLOCK 4BE-9             
1 60514U 24149AY  26141.19574507  .00010540  00000+0  26708-3 0  9993
2 60514  97.3787 225.2239 0003505  63.4714 296.6891 15.39899364 98164
FLOCK 4BE-6             
1 60516U 24149BA  26141.72409301  .00009428  00000+0  24806-3 0  9993
2 60516  97.3784 225.1636 0004103  56.3000 303.8636 15.38773077 98201
FLOCK 4BE-14            
1 60517U 24149BB  26141.47126313  .00010817  00000+0  27241-3 0  9995
2 60517  97.3693 225.0238 0004865  51.6732 308.4951 15.40074048 98210
FLOCK 4BE-1             
1 60518U 24149BC  26141.70919080  .00011830  00000+0  28303-3 0  9999
2 60518  97.3777 226.4477 0004408  51.1354 309.0286 15.41609565 98297
FLOCK 4BE-28            
1 60519U 24149BD  26141.76259787  .00013104  00000+0  29035-3 0  9996
2 60519  97.3741 227.1449 0004441  45.0120 315.1487 15.43885585 98365
IPERDRONE.0             
1 60520U 24149BE  26141.76624639  .00044156  00000+0  49123-3 0  9991
2 60520  97.3779 233.7549 0001028 339.7637  20.3580 15.62756471 98783
TRANSPORTER-11 OBJECT BF
1 60521U 24149BF  26141.26082626  .00108145  00000+0  74419-3 0  9996
2 60521  97.3777 235.3474 0001646 268.1396  91.9680 15.74317054 98834
CONNECTA IOT-2          
1 60522U 24149BG  26141.71697255  .00002962  00000+0  12618-3 0  9990
2 60522  97.3839 220.2686 0007898  66.1343 294.0721 15.23716350 97865
PTD-R (TYVAK-0127)      
1 60523U 24149BH  26141.76822822  .00159076  11328-4  52295-3 0  9990
2 60523  97.3791 240.1331 0002469 246.1182 113.9832 15.90531006 99211
CONNECTA IOT-4          
1 60524U 24149BJ  26141.72437970  .00013394  00000+0  32593-3 0  9994
2 60524  97.3793 225.8032 0005462  40.5697 319.5956 15.41060557 98253
ORESAT0.5               
1 60525U 24149BK  26141.75017309  .00013238  00000+0  29230-3 0  9999
2 60525  97.3718 227.3679 0005358  30.0340 330.1215 15.43983485 98396
DEIMOS                  
1 60526U 24149BL  26141.76821661  .00012871  00000+0  29201-3 0  9995
2 60526  97.3776 227.5391 0005605  36.5629 323.6001 15.43179100 98379
CUAVA-2                 
1 60527U 24149BM  26141.76035830  .00008392  00000+0  24592-3 0  9992
2 60527  97.3722 223.2483 0007225  40.3414 319.8364 15.35435059 98111
ERNST                   
1 60528U 24149BN  26141.70396066  .00009942  00000+0  26426-3 0  9998
2 60528  97.3805 225.2409 0006570  44.5274 315.6498 15.38429071 98208
TORO                    
1 60530U 24149BQ  26141.75928870  .00001662  00000+0  15208-3 0  9997
2 60530  97.6793 216.9217 0001981  92.7529 267.3920 14.96313022 96003
HYPSO-2                 
1 60531U 24149BR  26141.76183014  .00002318  00000+0  19797-3 0  9998
2 60531  97.6833 218.4076 0002948  93.3767 266.7793 14.98645906 96095
LEMU NGE                
1 60532U 24149BS  26141.74547469  .00001494  00000+0  14241-3 0  9998
2 60532  97.6846 217.2410 0002683 102.9199 257.2321 14.94824424 96004
LEMUR-2-STELLA          
1 60533U 24149BT  26141.73354682  .00007051  00000+0  42429-3 0  9995
2 60533  97.6729 224.0869 0002135 115.6544 244.4906 15.11147638 96503
SATELIOT_2              
1 60534U 24149BU  26141.74532838  .00001363  00000+0  12580-3 0  9993
2 60534  97.6830 217.1849 0001711 115.2229 244.9170 14.96245515 96012
NIGHTJAR                
1 60535U 24149BV  26141.75707051  .00002447  00000+0  20761-3 0  9990
2 60535  97.6839 218.8314 0002450 123.3447 236.8010 14.98840808138917
LEMUR-2-MARHISYAM       
1 60536U 24149BW  26141.70450872  .00007736  00000+0  47175-3 0  9996
2 60536  97.6874 224.4787 0002259 170.3446 189.7827 15.10629798 96487
SATELIOT_4              
1 60537U 24149BX  26141.76161270  .00001634  00000+0  14860-3 0  9990
2 60537  97.6745 216.7465 0003711 110.3522 249.8099 14.96561651 96020
PICO-02A021             
1 60538U 24149BY  26141.73799112  .00003028  00000+0  22968-3 0  9997
2 60538  97.6754 220.8061 0007389 104.0561 256.1486 15.02966870 95768
ICEYE-X43               
1 60539U 24149BZ  26141.74075928  .00002051  00000+0  17064-3 0  9997
2 60539  97.6760 219.0713 0005592 167.7664 192.3696 14.99780291 96158
